[{"OBJECT_NAME":"BRO-13","OBJECT_ID":"2024-043K","EPOCH":"2026-03-09T22:19:47.829216","MEAN_MOTION":14.96296765,"ECCENTRICITY":0.00083947,"INCLINATION":97.8333,"RA_OF_ASC_NODE":199.7446,"ARG_OF_PERICENTER":338.0901,"MEAN_ANOMALY":21.996,"EPHEMERIS_TYPE":0,"CLASSIFICATION_TYPE":"U","NORAD_CAT_ID":59107,"ELEMENT_SET_NO":999,"REV_AT_EPOCH":10977,"BSTAR":0.00013050562,"MEAN_MOTION_DOT":1.416e-5,"MEAN_MOTION_DDOT":0},{"OBJECT_NAME":"STARLINK-33997","OBJECT_ID":"2025-098C","EPOCH":"2026-03-09T22:20:46.078368","MEAN_MOTION":14.96551413,"ECCENTRICITY":0.00068477,"INCLINATION":70.0004,"RA_OF_ASC_NODE":274.0384,"ARG_OF_PERICENTER":77.5305,"MEAN_ANOMALY":282.6619,"EPHEMERIS_TYPE":0,"CLASSIFICATION_TYPE":"U","NORAD_CAT_ID":63928,"ELEMENT_SET_NO":999,"REV_AT_EPOCH":4660,"BSTAR":-0.062237161,"MEAN_MOTION_DOT":-0.00663337,"MEAN_MOTION_DDOT":0}]
